ONEWEB-0634             
1 56075U 23043AF  25047.90315302  .00000134  00000+0  32060-3 0  9997
2 56075  87.9128 355.8672 0002074  72.2657 287.8700 13.15549659 93505
ONEWEB-0635             
1 56076U 23043AG  25047.89838890  .00000065  00000+0  13734-3 0  9998
2 56076  87.9100 355.8868 0001570  89.6554 270.4757 13.15546615 93533
ONEWEB-0636             
1 56077U 23043AH  25047.89047043  .00000000  00000+0 -34682-4 0  9997
2 56077  87.9108 355.8874 0001606  86.9561 273.1753 13.15548665 93518
ONEWEB-0637             
1 56078U 23043AJ  25047.88411827 -.00000369  00000+0 -10139-2 0  9990
2 56078  87.9128 355.8703 0001526  75.7348 284.3952 13.15549301 93537
ONEWEB-0647             
1 56079U 23043AK  25047.87938745 -.00000003  00000+0 -42878-4 0  9995
2 56079  87.9127 355.8836 0001813  87.0638 273.0700 13.15549670 92614
ONEWEB-0651             
1 56080U 23043AL  25047.87461845 -.00000079  00000+0 -24449-3 0  9995
2 56080  87.9130 355.8688 0001497  81.4528 278.6772 13.15547111 92617
ONEWEB-0718             
1 56081U 23043AM  25047.86988107 -.00000045  00000+0 -15232-3 0  9993
2 56081  87.9130 355.8539 0002067  67.8042 292.3308 13.15550065 93538
ONEWEB-0561             
1 56710U 23068A   25047.89978061  .00000116  00000+0  25446-3 0  9995
2 56710  87.9284  11.0373 0001535 100.6262 259.5044 13.20770915 85440
